{"type":"FeatureCollection","features":[{"type":"Feature","geometry":{"type":"Point","coordinates":[-0.570681,44.840115]},"bbox":[-0.570681,44.840115,-0.570681,44.840115],"properties":{"label":"Bordeaux - Gironde, France"}},{"type":"Feature","geometry":{"type":"Point","coordinates":[4.832011,45.757814]},"bbox":[4.832011,45.757814,4.832011,45.757814],"properties":{"label":"Rhône - France"}},{"type":"Feature","geometry":{"type":"Point","coordinates":[4.5,47]},"bbox":[4.5,47,4.5,47],"properties":{"label":"Burgundy - France"}},{"type":"Feature","geometry":{"type":"Point","coordinates":[4.800058,45.273537]},"bbox":[4.800058,45.273537,4.800058,45.273537],"properties":{"label":"Champagne - Ardèche, France"}},{"type":"Feature","geometry":{"type":"Point","coordinates":[3.166667,43.666667]},"bbox":[3.166667,43.666667,3.166667,43.666667],"properties":{"label":"Languedoc-Roussillon - France"}},{"type":"Feature","geometry":{"type":"Point","coordinates":[0.06218,47.21629]},"bbox":[0.06218,47.21629,0.06218,47.21629],"properties":{"label":"Loire Valley - France"}}]}